HXMT (HUIYAN)           
1 42758U 17034A   26069.30421669  .00008545  00000+0  42437-3 0  9999
2 42758  43.0157  13.2567 0032979 239.7303 120.0280 15.17476255482638
SAOCOM 1A               
1 43641U 18076A   26068.96299391  .00001305  00000+0  17043-3 0  9996
2 43641  97.8895 257.1316 0001339  83.6952 276.4413 14.82173643401405
H-2A R/B                
1 43682U 18084L   26069.12235724  .00021874  00000+0  51988-3 0  9998
2 43682  98.8731 286.6024 0025377  23.8947 336.3467 15.41368885405848
SAOCOM 1B               
1 46265U 20059A   26065.95626301  .00001349  00000+0  17595-3 0  9996
2 46265  97.8885 253.2654 0001504  81.2285 278.9098 14.82173062298346
CSS (TIANHE)            
1 48274U 21035A   26069.29149981  .00027696  00000+0  32677-3 0  9999
2 48274  41.4662 204.4993 0006978 276.4011  83.6033 15.60691261277705
COSMOS 2550             
1 48865U 21056A   26067.47400841 -.00000192  00000+0 -13338-7 0  9992
2 48865  67.1451  44.6088 0008369 269.6014  90.4182 15.33829151263273
CZ-2C R/B               
1 52794U 22058K   26069.09097593  .00039191  00000+0  57033-3 0  9992
2 52794  50.1894 316.2255 0042149 202.5748 157.3370 15.54266256210199
CZ-2C R/B               
1 54039U 22132E   26069.01235141  .00045660  00000+0  51999-3 0  9997
2 54039  97.2968  72.3390 0020661  90.3292 270.0333 15.61874020190426
GSLV R/B                
1 54149U 22138AN  26069.32252360  .00004007  00000+0  34611-3 0  9993
2 54149  87.3874 166.1505 0023045 144.6084 215.6683 14.96780192184020
XRISM                   
1 57800U 23137A   26068.97080784  .00006442  00000+0  36527-3 0  9992
2 57800  31.0015 281.8459 0008010  41.4505 318.6740 15.11505972137834
ACS3                    
1 59588U 24077B   26069.29002334  .00018252  00000+0  14679-1 0  9996
2 59588  97.2067  10.2667 0059947  75.2215 285.5581 13.89628680 94284
SZ-21 MODULE            
1 66515U 25246C   26067.73638915  .00047754  00000+0  41113-3 0  9994
2 66515  41.4736 209.2286 0001365 296.9264  63.1439 15.68463397 17929
